{
  "norad_id": 59711,
  "name": "STARLINK-11082 [DTC]",
  "history": [
    {
      "epoch": "2026-03-28T18:03:35.287200Z",
      "apogee_km": 360.2852498035536,
      "perigee_km": 359.1027604621522,
      "latitude_deg": -3.93110468340986e-06,
      "longitude_deg": 135.42444148937423,
      "height_km": 360.66067411568287,
      "semi_major_axis_km": 6737.831005132853,
      "eccentricity": 8.775e-05,
      "inclination_deg": 53.1603,
      "raan_deg": 232.4899,
      "arg_perigee_deg": 95.1112,
      "mean_anomaly_deg": 265.0006,
      "mean_motion_rev_day": 15.69721443
    }
  ]
}